HAWK-7C                 
1 56200U 23054Y   26068.68891713  .00007947  00000+0  30980-3 0  9991
2 56200  97.2829 317.5849 0003651  52.2090 307.9479 15.26207266161848
STARLINK-35343          
1 67334U 26003A   26068.49539460  .00033727  00000+0  12290-2 0  9993
2 67334  43.0002 228.2092 0001671 271.3939  88.6721 15.27593914  8790
